start=new Date('2022-06-02T00:00:00.000Z').valueOf();
sats=[{"INCLINATION":"53.2177","TIME_SYSTEM":"UTC","RCS_SIZE":"LARGE","MEAN_MOTION":"15.19051044","FILE":"3476255","CENTER_NAME":"EARTH","MEAN_MOTION_DOT":"-0.00723041","RA_OF_ASC_NODE":"90.2881","EPOCH":"2022-06-01T20:00:01.000224","EPHEMERIS_TYPE":"0","REF_FRAME":"TEME","OBJECT_NAME":"STARLINK-3690","OBJECT_ID":"2022-025J","REV_AT_EPOCH":"130","LAUNCH_DATE":"2022-03-09","SITE":"AFETR","DECAY_DATE":null,"PERIOD":"94.796","BSTAR":"-0.03657100000000","PERIAPSIS":"507.413","APOAPSIS":"510.005","CLASSIFICATION_TYPE":"U","OBJECT_TYPE":"PAYLOAD","ARG_OF_PERICENTER":"41.2238","TLE_LINE2":"2 51964  53.2177  90.2881 0001882  41.2238 128.3371 15.19051044  1308","COUNTRY_CODE":"US","ELEMENT_SET_NO":"999","NORAD_CAT_ID":"51964","MEAN_ANOMALY":"128.3371","MEAN_ELEMENT_THEORY":"SGP4","ECCENTRICITY":"0.00018820","TLE_LINE1":"1 51964U 22025J   22152.83334491 -.00723041  00000-0 -36571-1 0  9995","MEAN_MOTION_DDOT":"0.0000000000000","GP_ID":"205128259","SEMIMAJOR_AXIS":"6886.844"},{"BSTAR":"-0.03715500000000","PERIOD":"94.833","APOAPSIS":"511.734","CLASSIFICATION_TYPE":"U","PERIAPSIS":"509.225","OBJECT_TYPE":"PAYLOAD","TLE_LINE2":"2 51965  53.2176  90.2788 0001821  41.2687  81.9487 15.18465618  1302","ARG_OF_PERICENTER":"41.2687","COUNTRY_CODE":"US","MEAN_ELEMENT_THEORY":"SGP4","MEAN_ANOMALY":"81.9487","NORAD_CAT_ID":"51965","ELEMENT_SET_NO":"999","TLE_LINE1":"1 51965U 22025K   22152.83334491 -.00722242  00000-0 -37155-1 0  9997","ECCENTRICITY":"0.00018210","MEAN_MOTION_DDOT":"0.0000000000000","GP_ID":"205127812","SEMIMAJOR_AXIS":"6888.614","TIME_SYSTEM":"UTC","RCS_SIZE":"LARGE","INCLINATION":"53.2176","MEAN_MOTION":"15.18465618","FILE":"3476255","MEAN_MOTION_DOT":"-0.00722242","CENTER_NAME":"EARTH","RA_OF_ASC_NODE":"90.2788","OBJECT_NAME":"STARLINK-3696","REF_FRAME":"TEME","EPHEMERIS_TYPE":"0","EPOCH":"2022-06-01T20:00:01.000224","LAUNCH_DATE":"2022-03-09","REV_AT_EPOCH":"130","OBJECT_ID":"2022-025K","SITE":"AFETR","DECAY_DATE":null},{"TLE_LINE2":"2 51966  53.2176  90.2943 0001696  51.3519 148.5079 15.19447069  1300","ARG_OF_PERICENTER":"51.3519","OBJECT_TYPE":"PAYLOAD","APOAPSIS":"508.680","CLASSIFICATION_TYPE":"U","PERIAPSIS":"506.345","BSTAR":"-0.03615700000000","PERIOD":"94.771","GP_ID":"205127682","SEMIMAJOR_AXIS":"6885.648","TLE_LINE1":"1 51966U 22025L   22152.83334491 -.00723127  00000-0 -36157-1 0  9992","ECCENTRICITY":"0.00016960","MEAN_MOTION_DDOT":"0.0000000000000","MEAN_ANOMALY":"148.5079","MEAN_ELEMENT_THEORY":"SGP4","ELEMENT_SET_NO":"999","NORAD_CAT_ID":"51966","COUNTRY_CODE":"US","RA_OF_ASC_NODE":"90.2943","MEAN_MOTION_DOT":"-0.00723127","CENTER_NAME":"EARTH","FILE":"3476255","MEAN_MOTION":"15.19447069","INCLINATION":"53.2176","RCS_SIZE":"LARGE","TIME_SYSTEM":"UTC","DECAY_DATE":null,"SITE":"AFETR","REV_AT_EPOCH":"130","OBJECT_ID":"2022-025L","LAUNCH_DATE":"2022-03-09","OBJECT_NAME":"STARLINK-3699","EPOCH":"2022-06-01T20:00:01.000224","EPHEMERIS_TYPE":"0","REF_FRAME":"TEME"},{"MEAN_MOTION_DOT":"0.00020500","CENTER_NAME":"EARTH","RA_OF_ASC_NODE":"88.0962","RCS_SIZE":"LARGE","TIME_SYSTEM":"UTC","INCLINATION":"53.2132","FILE":"3476255","MEAN_MOTION":"15.49726879","SITE":"AFETR","DECAY_DATE":null,"OBJECT_NAME":"STARLINK-3695","EPHEMERIS_TYPE":"0","REF_FRAME":"TEME","EPOCH":"2022-06-01T20:00:01.000224","LAUNCH_DATE":"2022-03-09","REV_AT_EPOCH":"130","OBJECT_ID":"2022-025M","OBJECT_TYPE":"PAYLOAD","TLE_LINE2":"2 51967  53.2132  88.0962 0004898 353.5567 172.5182 15.49726879  1300","ARG_OF_PERICENTER":"353.5567","BSTAR":"0.00037013000000","PERIOD":"92.920","APOAPSIS":"420.855","CLASSIFICATION_TYPE":"U","PERIAPSIS":"414.198","MEAN_MOTION_DDOT":"0.0000000000000","TLE_LINE1":"1 51967U 22025M   22152.83334491  .00020500  00000-0  37013-3 0  9990","ECCENTRICITY":"0.00048980","GP_ID":"205128049","SEMIMAJOR_AXIS":"6795.661","COUNTRY_CODE":"US","MEAN_ELEMENT_THEORY":"SGP4","MEAN_ANOMALY":"172.5182","NORAD_CAT_ID":"51967","ELEMENT_SET_NO":"999"},{"COUNTRY_CODE":"US","NORAD_CAT_ID":"51968","ELEMENT_SET_NO":"999","MEAN_ELEMENT_THEORY":"SGP4","MEAN_ANOMALY":"168.0013","TLE_LINE1":"1 51968U 22025N   22152.83334491 -.00723021  00000-0 -35947-1 0  9993","ECCENTRICITY":"0.00017670","MEAN_MOTION_DDOT":"0.0000000000000","SEMIMAJOR_AXIS":"6885.062","GP_ID":"205127917","PERIOD":"94.759","BSTAR":"-0.03594700000000","PERIAPSIS":"505.711","APOAPSIS":"508.144","CLASSIFICATION_TYPE":"U","OBJECT_TYPE":"PAYLOAD","ARG_OF_PERICENTER":"46.9769","TLE_LINE2":"2 51968  53.2176  90.2970 0001767  46.9769 168.0013 15.19640791  1300","EPHEMERIS_TYPE":"0","REF_FRAME":"TEME","EPOCH":"2022-06-01T20:00:01.000224","OBJECT_NAME":"STARLINK-3681","LAUNCH_DATE":"2022-03-09","REV_AT_EPOCH":"130","OBJECT_ID":"2022-025N","SITE":"AFETR","DECAY_DATE":null,"TIME_SYSTEM":"UTC","RCS_SIZE":"LARGE","INCLINATION":"53.2176","FILE":"3476255","MEAN_MOTION":"15.19640791","MEAN_MOTION_DOT":"-0.00723021","CENTER_NAME":"EARTH","RA_OF_ASC_NODE":"90.2970"},{"ECCENTRICITY":"0.00017670","TLE_LINE1":"1 51969U 22025P   22152.83334491 -.00722836  00000-0 -36772-1 0  9994","MEAN_MOTION_DDOT":"0.0000000000000","GP_ID":"205128155","SEMIMAJOR_AXIS":"6887.443","COUNTRY_CODE":"US","NORAD_CAT_ID":"51969","ELEMENT_SET_NO":"999","MEAN_ELEMENT_THEORY":"SGP4","MEAN_ANOMALY":"108.2539","OBJECT_TYPE":"PAYLOAD","ARG_OF_PERICENTER":"46.0193","TLE_LINE2":"2 51969  53.2177  90.2849 0001767  46.0193 108.2539 15.18852949  1307","PERIOD":"94.808","BSTAR":"-0.03677200000000","PERIAPSIS":"508.091","APOAPSIS":"510.525","CLASSIFICATION_TYPE":"U","SITE":"AFETR","DECAY_DATE":null,"REF_FRAME":"TEME","EPHEMERIS_TYPE":"0","EPOCH":"2022-06-01T20:00:01.000224","OBJECT_NAME":"STARLINK-3680","LAUNCH_DATE":"2022-03-09","REV_AT_EPOCH":"130","OBJECT_ID":"2022-025P","MEAN_MOTION_DOT":"-0.00722836","CENTER_NAME":"EARTH","RA_OF_ASC_NODE":"90.2849","RCS_SIZE":"LARGE","TIME_SYSTEM":"UTC","INCLINATION":"53.2177","FILE":"3476255","MEAN_MOTION":"15.18852949"},{"SEMIMAJOR_AXIS":"6883.868","GP_ID":"205128025","TLE_LINE1":"1 51970U 22025Q   22152.83334491 -.00722295  00000-0 -35496-1 0  9997","ECCENTRICITY":"0.00016510","MEAN_MOTION_DDOT":"0.0000000000000","MEAN_ANOMALY":"191.8497","MEAN_ELEMENT_THEORY":"SGP4","ELEMENT_SET_NO":"999","NORAD_CAT_ID":"51970","COUNTRY_CODE":"US","TLE_LINE2":"2 51970  53.2175  90.3027 0001651  52.8786 191.8497 15.20036307  1307","ARG_OF_PERICENTER":"52.8786","OBJECT_TYPE":"PAYLOAD","APOAPSIS":"506.870","CLASSIFICATION_TYPE":"U","PERIAPSIS":"504.596","BSTAR":"-0.03549600000000","PERIOD":"94.735","DECAY_DATE":null,"SITE":"AFETR","OBJECT_ID":"2022-025Q","REV_AT_EPOCH":"130","LAUNCH_DATE":"2022-03-09","OBJECT_NAME":"STARLINK-3677","EPOCH":"2022-06-01T20:00:01.000224","REF_FRAME":"TEME","EPHEMERIS_TYPE":"0","RA_OF_ASC_NODE":"90.3027","CENTER_NAME":"EARTH","MEAN_MOTION_DOT":"-0.00722295","FILE":"3476255","MEAN_MOTION":"15.20036307","INCLINATION":"53.2175","RCS_SIZE":"LARGE","TIME_SYSTEM":"UTC"},{"MEAN_ELEMENT_THEORY":"SGP4","MEAN_ANOMALY":"139.7264","NORAD_CAT_ID":"51971","ELEMENT_SET_NO":"999","COUNTRY_CODE":"US","SEMIMAJOR_AXIS":"6886.246","GP_ID":"205127707","ECCENTRICITY":"0.00018080","TLE_LINE1":"1 51971U 22025R   22152.83334491 -.00723170  00000-0 -36368-1 0  9990","MEAN_MOTION_DDOT":"0.0000000000000","CLASSIFICATION_TYPE":"U","APOAPSIS":"509.356","PERIAPSIS":"506.866","BSTAR":"-0.03636800000000","PERIOD":"94.784","TLE_LINE2":"2 51971  53.2176  90.2912 0001808  45.0301 139.7264 15.19249108  1308","ARG_OF_PERICENTER":"45.0301","OBJECT_TYPE":"PAYLOAD","LAUNCH_DATE":"2022-03-09","OBJECT_ID":"2022-025R","REV_AT_EPOCH":"130","OBJECT_NAME":"STARLINK-3669","REF_FRAME":"TEME","EPHEMERIS_TYPE":"0","EPOCH":"2022-06-01T20:00:01.000224","DECAY_DATE":null,"SITE":"AFETR","FILE":"3476255","MEAN_MOTION":"15.19249108","RCS_SIZE":"LARGE","TIME_SYSTEM":"UTC","INCLINATION":"53.2176","RA_OF_ASC_NODE":"90.2912","CENTER_NAME":"EARTH","MEAN_MOTION_DOT":"-0.00723170"},{"OBJECT_NAME":"STARLINK-3671","EPOCH":"2022-06-01T20:00:01.000224","EPHEMERIS_TYPE":"0","REF_FRAME":"TEME","REV_AT_EPOCH":"130","OBJECT_ID":"2022-025S","LAUNCH_DATE":"2022-03-09","SITE":"AFETR","DECAY_DATE":null,"INCLINATION":"53.2175","RCS_SIZE":"LARGE","TIME_SYSTEM":"UTC","MEAN_MOTION":"15.20230156","FILE":"3476255","CENTER_NAME":"EARTH","MEAN_MOTION_DOT":"-0.00722510","RA_OF_ASC_NODE":"90.3052","COUNTRY_CODE":"US","MEAN_ANOMALY":"211.5064","MEAN_ELEMENT_THEORY":"SGP4","ELEMENT_SET_NO":"999","NORAD_CAT_ID":"51972","MEAN_MOTION_DDOT":"0.0000000000000","TLE_LINE1":"1 51972U 22025S   22152.83334491 -.00722510  00000-0 -35306-1 0  9999","ECCENTRICITY":"0.00016950","GP_ID":"205128260","SEMIMAJOR_AXIS":"6883.283","BSTAR":"-0.03530600000000","PERIOD":"94.722","APOAPSIS":"506.315","CLASSIFICATION_TYPE":"U","PERIAPSIS":"503.981","OBJECT_TYPE":"PAYLOAD","TLE_LINE2":"2 51972  53.2175  90.3052 0001695  48.0715 211.5064 15.20230156  1302","ARG_OF_PERICENTER":"48.0715"},{"CENTER_NAME":"EARTH","MEAN_MOTION_DOT":"-0.00722872","RA_OF_ASC_NODE":"90.2999","INCLINATION":"53.2176","TIME_SYSTEM":"UTC","RCS_SIZE":"LARGE","MEAN_MOTION":"15.19838665","FILE":"3476255","SITE":"AFETR","DECAY_DATE":null,"EPOCH":"2022-06-01T20:00:01.000224","REF_FRAME":"TEME","EPHEMERIS_TYPE":"0","OBJECT_NAME":"STARLINK-3679","OBJECT_ID":"2022-025T","REV_AT_EPOCH":"130","LAUNCH_DATE":"2022-03-09","OBJECT_TYPE":"PAYLOAD","ARG_OF_PERICENTER":"48.4110","TLE_LINE2":"2 51973  53.2176  90.2999 0001728  48.4110 181.4883 15.19838665  1304","PERIOD":"94.747","BSTAR":"-0.03573200000000","PERIAPSIS":"505.140","CLASSIFICATION_TYPE":"U","APOAPSIS":"507.519","ECCENTRICITY":"0.00017280","TLE_LINE1":"1 51973U 22025T   22152.83334491 -.00722872  00000-0 -35732-1 0  9994","MEAN_MOTION_DDOT":"0.0000000000000","SEMIMAJOR_AXIS":"6884.465","GP_ID":"205127813","COUNTRY_CODE":"US","ELEMENT_SET_NO":"999","NORAD_CAT_ID":"51973","MEAN_ANOMALY":"181.4883","MEAN_ELEMENT_THEORY":"SGP4"}];
